16969,NOAA 10,1986,100.77,-1.0,-,98.67,Inactive,0,LEO,USA,USA,Unknown,Unknown,Unknown,1 16969U 86073A   25125.82526139  .00000238  00000+0  11131-3 0  9998,2 16969  98.6736 115.3841 0013232 106.3005 318.9955 14.28993186 11239,14.28993186,0.0013232,LEO
9057,NOAA 5,1976,116.33,-1.0,-,102.26,Inactive,0,LEO,USA,USA,Unknown,Unknown,Unknown,1 09057U 76077A   25126.22742781 -.00000007  00000+0  30099-3 0  9998,2 09057 102.2563 105.6678 0009896   6.8652   4.2634 12.37817346204348,12.37817346,0.0009896,LEO
11060,TIROS N,1978,101.47,-1.0,-,98.49,Inactive,0,LEO,USA,USA,Unknown,Unknown,Unknown,1 11060U 78096A   25125.79889615  .00000249  00000+0  13871-3 0  9993,2 11060  98.4903 159.5294 0010035 349.7720  10.3251 14.19177697620966,14.19177697,0.0010035,LEO
19531,NOAA 11,1988,101.71,-1.0,-,98.57,Inactive,0,LEO,USA,USA,Unknown,Unknown,Unknown,1 19531U 88089A   25125.86685803  .00000104  00000+0  74237-4 0  9992,2 19531  98.5685  81.0697 0011728  32.5791 327.6105 14.15738922889842,14.15738922,0.0011728,LEO
11416,NOAA 6,1979,100.34,-1.0,-,98.6,Inactive,0,LEO,USA,USA,Unknown,Unknown,Unknown,1 11416U 79057A   25126.04934282  .00000485  00000+0  18525-3 0  9999,2 11416  98.6018 152.6082 0010461  31.7102 328.4711 14.35150521392767,14.35150521,0.0010461,LEO
12553,NOAA 7,1981,101.57,-1.0,-,98.85,Inactive,0,LEO,USA,USA,Unknown,Unknown,Unknown,1 12553U 81059A   25125.88520628  .00000075  00000+0  58814-4 0  9994,2 12553  98.8455 190.7622 0011281 358.8715   1.2432 14.17699435267033,14.17699435,0.0011281,LEO
4793,NOAA 1,1970,114.83,-1.0,-,101.39,Inactive,0,LEO,USA,USA,Unknown,Unknown,Unknown,1 04793U 70106A   25126.10832488 -.00000035  00000+0  46791-4 0  9996,2 04793 101.3926 172.5271 0031971  65.7074 350.3132 12.54042673490141,12.54042673,0.0031971,LEO
21263,NOAA 12,1991,100.94,-1.0,-,98.59,Inactive,0,LEO,USA,USA,Unknown,Unknown,Unknown,1 21263U 91032A   25125.93540378  .00000178  00000+0  91676-4 0  9991,2 21263  98.5866 116.3232 0014459 134.8140 225.4219 14.26599808766893,14.26599808,0.0014459,LEO
13923,NOAA 8,1983,100.73,-1.0,-,98.74,Inactive,0,LEO,USA,USA,Unknown,Unknown,Unknown,1 13923U 83022A   25125.75985099  .00000251  00000+0  11561-3 0  9994,2 13923  98.7378 132.5600 0015082  14.8804 345.2818 14.29618747192855,14.29618747,0.0015082,LEO
6235,NOAA 2 (ITOS-D),1972,114.91,-1.0,-,102.02,Inactive,0,LEO,USA,USA,Unknown,Unknown,Unknown,1 06235U 72082A   25125.78075515 -.00000025  00000+0  13585-3 0  9990,2 06235 102.0225 134.5885 0003797 221.8331 311.9115 12.53199709403914,12.53199709,0.0003797,LEO
22739,NOAA 13,1993,101.87,-1.0,-,98.65,Inactive,0,LEO,USA,USA,Unknown,Unknown,Unknown,1 22739U 93050A   25125.81674280  .00000185  00000+0  12089-3 0  9997,2 22739  98.6540  77.9120 0008817 206.3421 153.7304 14.13517204635820,14.13517204,0.0008817,LEO
15427,NOAA 9,1984,101.63,-1.0,-,99.12,Inactive,0,LEO,USA,USA,Unknown,Unknown,Unknown,1 15427U 84123A   25125.79855250  .00000213  00000+0  12910-3 0  9994,2 15427  99.1232 137.3803 0015633  65.5626 107.2366 14.16912601 85728,14.16912601,0.0015633,LEO
