[
  {
    "OBJECT_NAME": "NOAA 1",
    "OBJECT_ID": "1970-106A",
    "EPOCH": "2025-05-06T02:35:59.269632",
    "MEAN_MOTION": 12.54042673,
    "ECCENTRICITY": 0.0031971,
    "INCLINATION": 101.3926,
    "RA_OF_ASC_NODE": 172.5271,
    "ARG_OF_PERICENTER": 65.7074,
    "MEAN_ANOMALY": 350.3132,
    "EPHEMERIS_TYPE": 0,
    "CLASSIFICATION_TYPE": "U",
    "NORAD_CAT_ID": 4793,
    "ELEMENT_SET_NO": 999,
    "REV_AT_EPOCH": 49014,
    "BSTAR": 4.6791e-05,
    "MEAN_MOTION_DOT": -3.5e-07,
    "MEAN_MOTION_DDOT": 0
  },
  {
    "OBJECT_NAME": "NOAA 2 (ITOS-D)",
    "OBJECT_ID": "1972-082A",
    "EPOCH": "2025-05-05T18:44:17.244960",
    "MEAN_MOTION": 12.53199709,
    "ECCENTRICITY": 0.0003797,
    "INCLINATION": 102.0225,
    "RA_OF_ASC_NODE": 134.5885,
    "ARG_OF_PERICENTER": 221.8331,
    "MEAN_ANOMALY": 311.9115,
    "EPHEMERIS_TYPE": 0,
    "CLASSIFICATION_TYPE": "U",
    "NORAD_CAT_ID": 6235,
    "ELEMENT_SET_NO": 999,
    "REV_AT_EPOCH": 40391,
    "BSTAR": 0.00013585,
    "MEAN_MOTION_DOT": -2.5e-07,
    "MEAN_MOTION_DDOT": 0
  },
  {
    "OBJECT_NAME": "NOAA 5",
    "OBJECT_ID": "1976-077A",
    "EPOCH": "2025-05-06T05:27:29.762784",
    "MEAN_MOTION": 12.37817346,
    "ECCENTRICITY": 0.0009896,
    "INCLINATION": 102.2563,
    "RA_OF_ASC_NODE": 105.6678,
    "ARG_OF_PERICENTER": 6.8652,
    "MEAN_ANOMALY": 4.2634,
    "EPHEMERIS_TYPE": 0,
    "CLASSIFICATION_TYPE": "U",
    "NORAD_CAT_ID": 9057,
    "ELEMENT_SET_NO": 999,
    "REV_AT_EPOCH": 20434,
    "BSTAR": 0.00030099,
    "MEAN_MOTION_DOT": -7e-08,
    "MEAN_MOTION_DDOT": 0
  },
  {
    "OBJECT_NAME": "TIROS N",
    "OBJECT_ID": "1978-096A",
    "EPOCH": "2025-05-05T19:10:24.627360",
    "MEAN_MOTION": 14.19177697,
    "ECCENTRICITY": 0.0010035,
    "INCLINATION": 98.4903,
    "RA_OF_ASC_NODE": 159.5294,
    "ARG_OF_PERICENTER": 349.772,
    "MEAN_ANOMALY": 10.3251,
    "EPHEMERIS_TYPE": 0,
    "CLASSIFICATION_TYPE": "U",
    "NORAD_CAT_ID": 11060,
    "ELEMENT_SET_NO": 999,
    "REV_AT_EPOCH": 62096,
    "BSTAR": 0.00013871,
    "MEAN_MOTION_DOT": 2.49e-06,
    "MEAN_MOTION_DDOT": 0
  },
  {
    "OBJECT_NAME": "NOAA 6",
    "OBJECT_ID": "1979-057A",
    "EPOCH": "2025-05-06T01:11:03.219648",
    "MEAN_MOTION": 14.35150521,
    "ECCENTRICITY": 0.0010461,
    "INCLINATION": 98.6018,
    "RA_OF_ASC_NODE": 152.6082,
    "ARG_OF_PERICENTER": 31.7102,
    "MEAN_ANOMALY": 328.4711,
    "EPHEMERIS_TYPE": 0,
    "CLASSIFICATION_TYPE": "U",
    "NORAD_CAT_ID": 11416,
    "ELEMENT_SET_NO": 999,
    "REV_AT_EPOCH": 39276,
    "BSTAR": 0.00018525,
    "MEAN_MOTION_DOT": 4.85e-06,
    "MEAN_MOTION_DDOT": 0
  },
  {
    "OBJECT_NAME": "NOAA 7",
    "OBJECT_ID": "1981-059A",
    "EPOCH": "2025-05-05T21:14:41.822592",
    "MEAN_MOTION": 14.17699435,
    "ECCENTRICITY": 0.0011281,
    "INCLINATION": 98.8455,
    "RA_OF_ASC_NODE": 190.7622,
    "ARG_OF_PERICENTER": 358.8715,
    "MEAN_ANOMALY": 1.2432,
    "EPHEMERIS_TYPE": 0,
    "CLASSIFICATION_TYPE": "U",
    "NORAD_CAT_ID": 12553,
    "ELEMENT_SET_NO": 999,
    "REV_AT_EPOCH": 26703,
    "BSTAR": 5.8814e-05,
    "MEAN_MOTION_DOT": 7.5e-07,
    "MEAN_MOTION_DDOT": 0
  },
  {
    "OBJECT_NAME": "NOAA 8",
    "OBJECT_ID": "1983-022A",
    "EPOCH": "2025-05-05T18:14:11.125536",
    "MEAN_MOTION": 14.29618747,
    "ECCENTRICITY": 0.0015082,
    "INCLINATION": 98.7378,
    "RA_OF_ASC_NODE": 132.56,
    "ARG_OF_PERICENTER": 14.8804,
    "MEAN_ANOMALY": 345.2818,
    "EPHEMERIS_TYPE": 0,
    "CLASSIFICATION_TYPE": "U",
    "NORAD_CAT_ID": 13923,
    "ELEMENT_SET_NO": 999,
    "REV_AT_EPOCH": 19285,
    "BSTAR": 0.00011561,
    "MEAN_MOTION_DOT": 2.51e-06,
    "MEAN_MOTION_DDOT": 0
  },
  {
    "OBJECT_NAME": "NOAA 9",
    "OBJECT_ID": "1984-123A",
    "EPOCH": "2025-05-05T19:09:54.936000",
    "MEAN_MOTION": 14.16912601,
    "ECCENTRICITY": 0.0015633,
    "INCLINATION": 99.1232,
    "RA_OF_ASC_NODE": 137.3803,
    "ARG_OF_PERICENTER": 65.5626,
    "MEAN_ANOMALY": 107.2366,
    "EPHEMERIS_TYPE": 0,
    "CLASSIFICATION_TYPE": "U",
    "NORAD_CAT_ID": 15427,
    "ELEMENT_SET_NO": 999,
    "REV_AT_EPOCH": 8572,
    "BSTAR": 0.0001291,
    "MEAN_MOTION_DOT": 2.13e-06,
    "MEAN_MOTION_DDOT": 0
  },
  {
    "OBJECT_NAME": "NOAA 10",
    "OBJECT_ID": "1986-073A",
    "EPOCH": "2025-05-05T19:48:22.584096",
    "MEAN_MOTION": 14.28993186,
    "ECCENTRICITY": 0.0013232,
    "INCLINATION": 98.6736,
    "RA_OF_ASC_NODE": 115.3841,
    "ARG_OF_PERICENTER": 106.3005,
    "MEAN_ANOMALY": 318.9955,
    "EPHEMERIS_TYPE": 0,
    "CLASSIFICATION_TYPE": "U",
    "NORAD_CAT_ID": 16969,
    "ELEMENT_SET_NO": 999,
    "REV_AT_EPOCH": 1123,
    "BSTAR": 0.00011131,
    "MEAN_MOTION_DOT": 2.38e-06,
    "MEAN_MOTION_DDOT": 0
  },
  {
    "OBJECT_NAME": "NOAA 11",
    "OBJECT_ID": "1988-089A",
    "EPOCH": "2025-05-05T20:48:16.533792",
    "MEAN_MOTION": 14.15738922,
    "ECCENTRICITY": 0.0011728,
    "INCLINATION": 98.5685,
    "RA_OF_ASC_NODE": 81.0697,
    "ARG_OF_PERICENTER": 32.5791,
    "MEAN_ANOMALY": 327.6105,
    "EPHEMERIS_TYPE": 0,
    "CLASSIFICATION_TYPE": "U",
    "NORAD_CAT_ID": 19531,
    "ELEMENT_SET_NO": 999,
    "REV_AT_EPOCH": 88984,
    "BSTAR": 7.4237e-05,
    "MEAN_MOTION_DOT": 1.04e-06,
    "MEAN_MOTION_DDOT": 0
  },
  {
    "OBJECT_NAME": "NOAA 12",
    "OBJECT_ID": "1991-032A",
    "EPOCH": "2025-05-05T22:26:58.886592",
    "MEAN_MOTION": 14.26599808,
    "ECCENTRICITY": 0.0014459,
    "INCLINATION": 98.5866,
    "RA_OF_ASC_NODE": 116.3232,
    "ARG_OF_PERICENTER": 134.814,
    "MEAN_ANOMALY": 225.4219,
    "EPHEMERIS_TYPE": 0,
    "CLASSIFICATION_TYPE": "U",
    "NORAD_CAT_ID": 21263,
    "ELEMENT_SET_NO": 999,
    "REV_AT_EPOCH": 76689,
    "BSTAR": 9.1676e-05,
    "MEAN_MOTION_DOT": 1.78e-06,
    "MEAN_MOTION_DDOT": 0
  },
  {
    "OBJECT_NAME": "NOAA 13",
    "OBJECT_ID": "1993-050A",
    "EPOCH": "2025-05-05T19:36:06.577920",
    "MEAN_MOTION": 14.13517204,
    "ECCENTRICITY": 0.0008817,
    "INCLINATION": 98.654,
    "RA_OF_ASC_NODE": 77.912,
    "ARG_OF_PERICENTER": 206.3421,
    "MEAN_ANOMALY": 153.7304,
    "EPHEMERIS_TYPE": 0,
    "CLASSIFICATION_TYPE": "U",
    "NORAD_CAT_ID": 22739,
    "ELEMENT_SET_NO": 999,
    "REV_AT_EPOCH": 63582,
    "BSTAR": 0.00012089,
    "MEAN_MOTION_DOT": 1.85e-06,
    "MEAN_MOTION_DDOT": 0
  }
]